{"fetched_at":"2026-07-07T18:29:44.901Z","source":"https://celestrak.org/NORAD/elements/gp.php?NAME=RCM&FORMAT=JSON","constellation":"rcm","records":[{"OBJECT_NAME":"RCM-1","OBJECT_ID":"2019-033A","EPOCH":"2026-07-07T12:20:53.154240","CLASSIFICATION_TYPE":"U","MEAN_MOTION":14.92586613,"ECCENTRICITY":0.0001505,"INCLINATION":97.7599,"RA_OF_ASC_NODE":195.6733,"ARG_OF_PERICENTER":91.0825,"MEAN_ANOMALY":269.0566,"EPHEMERIS_TYPE":0,"NORAD_CAT_ID":44322,"ELEMENT_SET_NO":999,"REV_AT_EPOCH":38511,"BSTAR":0.000074722,"MEAN_MOTION_DOT":0.00000713,"MEAN_MOTION_DDOT":0},{"OBJECT_NAME":"RCM-3","OBJECT_ID":"2019-033B","EPOCH":"2026-07-06T17:34:59.696832","CLASSIFICATION_TYPE":"U","MEAN_MOTION":14.92589837,"ECCENTRICITY":0.0001576,"INCLINATION":97.7597,"RA_OF_ASC_NODE":194.997,"ARG_OF_PERICENTER":87.9953,"MEAN_ANOMALY":272.1447,"EPHEMERIS_TYPE":0,"NORAD_CAT_ID":44323,"ELEMENT_SET_NO":999,"REV_AT_EPOCH":38501,"BSTAR":-0.000021595,"MEAN_MOTION_DOT":-0.00000278,"MEAN_MOTION_DDOT":0},{"OBJECT_NAME":"RCM-2","OBJECT_ID":"2019-033C","EPOCH":"2026-07-07T11:48:52.776000","CLASSIFICATION_TYPE":"U","MEAN_MOTION":14.92590336,"ECCENTRICITY":0.0001514,"INCLINATION":97.7601,"RA_OF_ASC_NODE":195.6961,"ARG_OF_PERICENTER":89.1712,"MEAN_ANOMALY":270.968,"EPHEMERIS_TYPE":0,"NORAD_CAT_ID":44324,"ELEMENT_SET_NO":999,"REV_AT_EPOCH":38511,"BSTAR":0.000016766,"MEAN_MOTION_DOT":0.00000117,"MEAN_MOTION_DDOT":0}]}
