RCM-1                   
1 44322U 19033A   26188.51450410  .00000713  00000+0  74722-4 0  9992
2 44322  97.7599 195.6733 0001505  91.0825 269.0566 14.92586613385110
RCM-3                   
1 44323U 19033B   26187.73263538 -.00000278  00000+0 -21595-4 0  9997
2 44323  97.7597 194.9970 0001576  87.9953 272.1447 14.92589837385011
RCM-2                   
1 44324U 19033C   26188.49227750  .00000117  00000+0  16766-4 0  9992
2 44324  97.7601 195.6961 0001514  89.1712 270.9680 14.92590336385117
